{
  "type": "FeatureCollection",
  "features": [
    {
      "type": "Feature",
      "properties": {
        "norad_id": 31922,
        "name": "FENGYUN 1C DEB",
        "group": "fengyun-1c-debris",
        "lat": -33.13944927882244,
        "lon": 154.64436929683836,
        "alt_km": 1061.365944706471,
        "timestamp": "2025-12-15T04:01:20.736500+00:00",
        "meta_object_name": "FENGYUN 1C DEB",
        "meta_object_id": "1999-025CLZ",
        "meta_epoch": "2025-12-13T21:50:31.856352",
        "meta_mean_motion": 13.8661059,
        "meta_eccentricity": 0.01615473,
        "meta_inclination": 98.8055,
        "meta_ra_of_asc_node": 339.2684,
        "meta_arg_of_pericenter": 23.2459,
        "meta_mean_anomaly": 36.8496,
        "meta_ephemeris_type": 0,
        "meta_classification_type": "U",
        "meta_norad_cat_id": 31922,
        "meta_element_set_no": 999,
        "meta_rev_at_epoch": 93033,
        "meta_bstar": 0.0020241513,
        "meta_mean_motion_dot": 2.568e-05,
        "meta_mean_motion_ddot": 0,
        "tle_line1": "1 31922U 99025CLZ 25347.91009093  .00002568  00000+0  20242-2 0  9996",
        "tle_line2": "2 31922  98.8055 339.2684 0161547  23.2459  36.8496 13.86610590930331"
      },
      "geometry": {
        "type": "Point",
        "coordinates": [
          154.64436929683836,
          -33.13944927882244
        ]
      }
    },
    {
      "type": "Feature",
      "properties": {
        "norad_id": 31923,
        "name": "FENGYUN 1C DEB",
        "group": "fengyun-1c-debris",
        "lat": 54.5541005487891,
        "lon": -85.39093517661286,
        "alt_km": 1269.5177676519497,
        "timestamp": "2025-12-15T04:01:20.736510+00:00",
        "meta_object_name": "FENGYUN 1C DEB",
        "meta_object_id": "1999-025CMA",
        "meta_epoch": "2025-12-10T04:39:01.801440",
        "meta_mean_motion": 13.5487962,
        "meta_eccentricity": 0.02988887,
        "meta_inclination": 98.4426,
        "meta_ra_of_asc_node": 78.306,
        "meta_arg_of_pericenter": 310.5348,
        "meta_mean_anomaly": 47.0108,
        "meta_ephemeris_type": 0,
        "meta_classification_type": "U",
        "meta_norad_cat_id": 31923,
        "meta_element_set_no": 999,
        "meta_rev_at_epoch": 63600,
        "meta_bstar": 0.0017886156,
        "meta_mean_motion_dot": 1.598e-05,
        "meta_mean_motion_ddot": 0,
        "tle_line1": "1 31923U 99025CMA 25344.19377085  .00001598  00000+0  17886-2 0  9995",
        "tle_line2": "2 31923  98.4426  78.3060 0298888 310.5348  47.0108 13.54879620636004"
      },
      "geometry": {
        "type": "Point",
        "coordinates": [
          -85.39093517661286,
          54.5541005487891
        ]
      }
    },
    {
      "type": "Feature",
      "properties": {
        "norad_id": 31924,
        "name": "FENGYUN 1C DEB",
        "group": "fengyun-1c-debris",
        "lat": 65.88907947081191,
        "lon": -14.53750873087701,
        "alt_km": 827.2738053466474,
        "timestamp": "2025-12-15T04:01:20.736520+00:00",
        "meta_object_name": "FENGYUN 1C DEB",
        "meta_object_id": "1999-025CMB",
        "meta_epoch": "2025-12-11T09:42:09.001440",
        "meta_mean_motion": 13.6390293,
        "meta_eccentricity": 0.02728704,
        "meta_inclination": 98.3997,
        "meta_ra_of_asc_node": 142.9288,
        "meta_arg_of_pericenter": 100.423,
        "meta_mean_anomaly": 262.7788,
        "meta_ephemeris_type": 0,
        "meta_classification_type": "U",
        "meta_norad_cat_id": 31924,
        "meta_element_set_no": 999,
        "meta_rev_at_epoch": 91449,
        "meta_bstar": 0.0020856968,
        "meta_mean_motion_dot": 2.1e-05,
        "meta_mean_motion_ddot": 0,
        "tle_line1": "1 31924U 99025CMB 25345.40427085  .00002100  00000+0  20857-2 0  9999",
        "tle_line2": "2 31924  98.3997 142.9288 0272870 100.4230 262.7788 13.63902930914499"
      },
      "geometry": {
        "type": "Point",
        "coordinates": [
          -14.53750873087701,
          65.88907947081191
        ]
      }
    },
    {
      "type": "Feature",
      "properties": {
        "norad_id": 31926,
        "name": "FENGYUN 1C DEB",
        "group": "fengyun-1c-debris",
        "lat": 44.763188707735765,
        "lon": 75.47586859302218,
        "alt_km": 811.4618594023868,
        "timestamp": "2025-12-15T04:01:20.736530+00:00",
        "meta_object_name": "FENGYUN 1C DEB",
        "meta_object_id": "1999-025CMD",
        "meta_epoch": "2025-12-12T05:19:00.782976",
        "meta_mean_motion": 14.30719252,
        "meta_eccentricity": 0.00390708,
        "meta_inclination": 98.9566,
        "meta_ra_of_asc_node": 81.441,
        "meta_arg_of_pericenter": 254.6996,
        "meta_mean_anomaly": 104.9866,
        "meta_ephemeris_type": 0,
        "meta_classification_type": "U",
        "meta_norad_cat_id": 31926,
        "meta_element_set_no": 999,
        "meta_rev_at_epoch": 95220,
        "meta_bstar": 0.0037395544,
        "meta_mean_motion_dot": 9.832e-05,
        "meta_mean_motion_ddot": 0,
        "tle_line1": "1 31926U 99025CMD 25346.22153684  .00009832  00000+0  37396-2 0  9998",
        "tle_line2": "2 31926  98.9566  81.4410 0039070 254.6996 104.9866 14.30719252952200"
      },
      "geometry": {
        "type": "Point",
        "coordinates": [
          75.47586859302218,
          44.763188707735765
        ]
      }
    },
    {
      "type": "Feature",
      "properties": {
        "norad_id": 31929,
        "name": "FENGYUN 1C DEB",
        "group": "fengyun-1c-debris",
        "lat": 0.9315892415999777,
        "lon": -61.29555046464722,
        "alt_km": 812.5061044942131,
        "timestamp": "2025-12-15T04:01:20.736541+00:00",
        "meta_object_name": "FENGYUN 1C DEB",
        "meta_object_id": "1999-025CME",
        "meta_epoch": "2025-12-12T14:57:05.736384",
        "meta_mean_motion": 14.34936907,
        "meta_eccentricity": 0.0074244,
        "meta_inclination": 98.7906,
        "meta_ra_of_asc_node": 115.9705,
        "meta_arg_of_pericenter": 55.663,
        "meta_mean_anomaly": 305.155,
        "meta_ephemeris_type": 0,
        "meta_classification_type": "U",
        "meta_norad_cat_id": 31929,
        "meta_element_set_no": 999,
        "meta_rev_at_epoch": 70644,
        "meta_bstar": 0.00072423089,
        "meta_mean_motion_dot": 2.08e-05,
        "meta_mean_motion_ddot": 0,
        "tle_line1": "1 31929U 99025CME 25346.62298306  .00002080  00000+0  72423-3 0  9995",
        "tle_line2": "2 31929  98.7906 115.9705 0074244  55.6630 305.1550 14.34936907706445"
      },
      "geometry": {
        "type": "Point",
        "coordinates": [
          -61.29555046464722,
          0.9315892415999777
        ]
      }
    },
    {
      "type": "Feature",
      "properties": {
        "norad_id": 31931,
        "name": "FENGYUN 1C DEB",
        "group": "fengyun-1c-debris",
        "lat": -10.383890223118483,
        "lon": 117.65034692321488,
        "alt_km": 998.7339648906664,
        "timestamp": "2025-12-15T04:01:20.736551+00:00",
        "meta_object_name": "FENGYUN 1C DEB",
        "meta_object_id": "1999-025CMG",
        "meta_epoch": "2025-12-11T14:58:14.235168",
        "meta_mean_motion": 13.42619022,
        "meta_eccentricity": 0.04232838,
        "meta_inclination": 97.8134,
        "meta_ra_of_asc_node": 296.3349,
        "meta_arg_of_pericenter": 272.5371,
        "meta_mean_anomaly": 82.7388,
        "meta_ephemeris_type": 0,
        "meta_classification_type": "U",
        "meta_norad_cat_id": 31931,
        "meta_element_set_no": 999,
        "meta_rev_at_epoch": 65207,
        "meta_bstar": 0.0016768042,
        "meta_mean_motion_dot": 1.586e-05,
        "meta_mean_motion_ddot": 0,
        "tle_line1": "1 31931U 99025CMG 25345.62377587  .00001586  00000+0  16768-2 0  9995",
        "tle_line2": "2 31931  97.8134 296.3349 0423283 272.5371  82.7388 13.42619022652072"
      },
      "geometry": {
        "type": "Point",
        "coordinates": [
          117.65034692321488,
          -10.383890223118483
        ]
      }
    },
    {
      "type": "Feature",
      "properties": {
        "norad_id": 31934,
        "name": "FENGYUN 1C DEB",
        "group": "fengyun-1c-debris",
        "lat": 56.4253274575514,
        "lon": -127.49726452359111,
        "alt_km": 542.7852358390719,
        "timestamp": "2025-12-15T04:01:20.736561+00:00",
        "meta_object_name": "FENGYUN 1C DEB",
        "meta_object_id": "1999-025CMK",
        "meta_epoch": "2025-12-04T09:16:56.352576",
        "meta_mean_motion": 15.05606214,
        "meta_eccentricity": 0.0038121,
        "meta_inclination": 98.8816,
        "meta_ra_of_asc_node": 26.4564,
        "meta_arg_of_pericenter": 260.5868,
        "meta_mean_anomaly": 99.1044,
        "meta_ephemeris_type": 0,
        "meta_classification_type": "U",
        "meta_norad_cat_id": 31934,
        "meta_element_set_no": 999,
        "meta_rev_at_epoch": 60717,
        "meta_bstar": 0.0071095,
        "meta_mean_motion_dot": 0.00105581,
        "meta_mean_motion_ddot": 0,
        "tle_line1": "1 31934U 99025CMK 25338.38676334  .00105581  00000+0  71095-2 0  9999",
        "tle_line2": "2 31934  98.8816  26.4564 0038121 260.5868  99.1044 15.05606214607177"
      },
      "geometry": {
        "type": "Point",
        "coordinates": [
          -127.49726452359111,
          56.4253274575514
        ]
      }
    }
  ]
}